STARLINK-32926          
1 63025U 25032W   25154.22905222  .00046523  00000+0  16883-2 0  9996
2 63025  43.0001 113.9843 0001863 259.7640 100.3002 15.27603047 17881
GLOBAL-31               
1 63027U 25033B   25153.90353742  .00021608  00000+0  58032-3 0  9997
2 63027  59.0031  49.5505 0020489  73.8969 286.4361 15.37758470 15947
STARLINK-32798          
1 63029U 25034A   25154.17251636  .00034549  00000+0  11733-2 0  9993
2 63029  53.1576 129.0888 0001181  96.3594 263.7541 15.30197334 17330
STARLINK-32779          
1 63030U 25034B   25154.22950140  .00044399  00000+0  15021-2 0  9995
2 63030  53.1566 129.4401 0001057  67.8765 292.2347 15.30202712 17339
STARLINK-32716          
1 63031U 25034C   25154.17245068  .00079458  00000+0  19761-2 0  9995
2 63031  53.1575 125.5380 0001354  64.7333 295.3812 15.39615022 17398
STARLINK-32776          
1 63032U 25034D   25154.22808058  .00050802  00000+0  12717-2 0  9992
2 63032  53.1579 125.1716 0001308  82.2628 277.8526 15.39617331 17395
STARLINK-32772          
1 63033U 25034E   25153.62536831 -.00129601  00000+0 -32687-2 0  9997
2 63033  53.1570 128.5254 0001683 104.6109 255.5082 15.39772593 17291
STARLINK-32830          
1 63034U 25034F   25154.19102795  .00053053  00000+0  13266-2 0  9996
2 63034  53.1579 125.6530 0001366 114.5512 245.5636 15.39630939 17383
STARLINK-32801          
1 63035U 25034G   25154.20031093  .00057866  00000+0  14466-2 0  9990
2 63035  53.1573 125.7128 0001323  65.6746 294.4397 15.39600334 17293
STARLINK-32818          
1 63036U 25034H   25154.21954696  .00056168  00000+0  14025-2 0  9990
2 63036  53.1568 125.8333 0001040  84.6720 275.4404 15.39649474 17382
STARLINK-32810          
1 63037U 25034J   25154.20493918  .00051671  00000+0  12924-2 0  9995
2 63037  53.1572 125.7402 0001098  92.4999 267.6131 15.39634512 17367
STARLINK-32812          
1 63038U 25034K   25153.92671604  .00077324  00000+0  18761-2 0  9992
2 63038  53.1576 126.8473 0002048 228.8376 131.2453 15.40378421 17248
STARLINK-32811          
1 63039U 25034L   25154.19566665  .00088285  00000+0  21923-2 0  9995
2 63039  53.1579 125.6828 0001314  74.1922 285.9227 15.39610850 17280
STARLINK-32832          
1 63040U 25034M   25154.18638001  .00086521  00000+0  21500-2 0  9992
2 63040  53.1581 125.6231 0001439  59.9401 300.1746 15.39599122 17288
STARLINK-32820          
1 63041U 25034N   25154.17709439  .00061754  00000+0  15406-2 0  9995
2 63041  53.1585 125.5646 0001559  79.3146 280.8035 15.39634658 17286
STARLINK-32795          
1 63042U 25034P   25153.64848095  .00031085  00000+0  78496-3 0  9992
2 63042  53.1579 127.9524 0001477 110.2684 249.8479 15.39580437 17206
STARLINK-32827          
1 63043U 25034Q   25154.22739218  .00034025  00000+0  11558-2 0  9996
2 63043  53.1568 129.4276 0001105  73.2770 286.8352 15.30196326 17334
STARLINK-32735          
1 63044U 25034R   25154.23150139  .00034194  00000+0  11612-2 0  9995
2 63044  53.1568 128.7412 0001259  55.0508 305.0611 15.30203609 17252
STARLINK-32828          
1 63045U 25034S   25153.34241062  .00002414  00000+0  93631-4 0  9996
2 63045  53.1596 133.1421 0000983  93.4385 266.6728 15.30185401 17201
STARLINK-32738          
1 63046U 25034T   25154.20064483  .00063636  00000+0  15877-2 0  9990
2 63046  53.1573 125.7105 0001131 102.6914 257.4217 15.39618724 17287
STARLINK-32590          
1 63047U 25034U   25154.20992381  .00061870  00000+0  15426-2 0  9996
2 63047  53.1567 125.7728 0001116  87.0682 273.0450 15.39651663 17285
STARLINK-32790          
1 63048U 25034V   25154.18207446  .00043818  00000+0  10994-2 0  9992
2 63048  53.1582 125.5950 0001505  71.4171 288.6997 15.39612565 17387
STARLINK-32829          
1 63049U 25034W   25154.22422725  .00031804  00000+0  10821-2 0  9998
2 63049  53.1563 129.4069 0001201  80.5674 279.5462 15.30177329 17238
STARLINK-32816          
1 63050U 25034X   25154.20312214  .00024264  00000+0  82890-3 0  9997
2 63050  53.1583 129.2720 0001392  77.3092 282.8064 15.30190649 17238
STARLINK-32835          
1 63051U 25034Y   25154.21050889  .00032074  00000+0  10911-2 0  9998
2 63051  53.1577 129.3250 0001326  72.8314 287.2832 15.30178686 17223
STARLINK-11550 [DTC]    
1 63052U 25035A   25153.98983077 -.00004321  00000+0 -30265-4 0  9999
2 63052  43.0008 261.0802 0000814 255.7759 104.3018 15.70795240 17235
STARLINK-11563 [DTC]    
1 63053U 25035B   25153.61368172 -.00012048  00000+0 -90904-4 0  9994
2 63053  42.9973 263.4166 0001248 262.0620  98.0106 15.70745517 17064
STARLINK-11347 [DTC]    
1 63054U 25035C   25153.32755941 -.00003305  00000+0 -22299-4 0  9995
2 63054  43.0000 265.5881 0001801 271.5432  88.5230 15.70804691 17124
STARLINK-11558 [DTC]    
1 63055U 25035D   25153.78317051 -.00008005  00000+0 -59120-4 0  9997
2 63055  42.9975 262.0976 0000579 222.2483 137.8340 15.70775853 17094
STARLINK-11392 [DTC]    
1 63056U 25035E   25154.01636443 -.00001258  00000+0 -63090-5 0  9999
2 63056  43.0015 261.2882 0002838 249.9789 110.0773 15.70807185 17237
STARLINK-11406 [DTC]    
1 63057U 25035F   25154.00042606 -.00000498  00000+0 -38364-6 0  9993
2 63057  43.0013 261.1584 0001591 273.6026  86.4660 15.70817819 17020
STARLINK-11418 [DTC]    
1 63058U 25035G   25153.77799882 -.00008631  00000+0 -64047-4 0  9994
2 63058  43.0005 262.9487 0001108 263.3653  96.7088 15.70765568 17031
STARLINK-11509 [DTC]    
1 63059U 25035H   25154.02166621 -.00001651  00000+0 -93988-5 0  9995
2 63059  42.9992 261.3271 0000238 163.8135 196.2740 15.70811846 16032
STARLINK-11403 [DTC]    
1 63060U 25035J   25154.01107275 -.00004754  00000+0 -33649-4 0  9990
2 63060  43.0038 261.2426 0002498 245.9041 114.1565 15.70777664 16039
STARLINK-11409 [DTC]    
1 63061U 25035K   25154.01728689 -.00005327  00000+0 -38116-4 0  9990
2 63061  43.0023 261.2915 0001838 266.2442  93.8215 15.70794181 17236
STARLINK-11412 [DTC]    
1 63062U 25035L   25154.00574418 -.00001462  00000+0 -79079-5 0  9999
2 63062  43.0019 261.2004 0001892 259.5435 100.5220 15.70816401 17230
STARLINK-11399 [DTC]    
1 63063U 25035M   25153.60305187 -.00011171  00000+0 -83938-4 0  9996
2 63063  43.0012 263.3255 0002803 280.2347  79.8204 15.70759286 17171
STARLINK-11408 [DTC]    
1 63064U 25035N   25153.59766644 -.00001296  00000+0 -66208-5 0  9993
2 63064  42.9995 263.2814 0000372 200.4625 159.6227 15.70837377 17172
STARLINK-33635          
1 63065U 25035P   25153.66294738 -.00005038  00000+0 -17378-3 0  9992
2 63065  43.0017 288.4835 0002927 281.9931  78.0592 15.27553173 16904
STARLINK-33622          
1 63066U 25035Q   25153.77574666 -.00005442  00000+0 -18865-3 0  9997
2 63066  43.0009 287.6062 0001349 259.7267 100.3432 15.27534666 16921
STARLINK-33628          
1 63067U 25035R   25153.74633721 -.00005673  00000+0 -19703-3 0  9991
2 63067  43.0025 288.2546 0001270 284.8894  75.1817 15.27538460 16913
STARLINK-33627          
1 63068U 25035S   25153.67323173 -.00004863  00000+0 -16744-3 0  9993
2 63068  43.0039 288.5609 0000967 301.4071  58.6686 15.27555476 16890
STARLINK-33620          
1 63069U 25035T   25153.86552932 -.00002648  00000+0 -86774-4 0  9992
2 63069  43.0051 287.4260 0003578 291.0281  69.0188 15.27551744 16925
STARLINK-33604          
1 63070U 25035U   25154.08739910 -.00003849  00000+0 -13054-3 0  9996
2 63070  43.0001 286.5187 0000451 155.6211 204.4662 15.27555251 16957
STARLINK-33624          
1 63071U 25035V   25154.25002315 -.00140018  00000+0 -50369-2 0  9997
2 63071  43.0001 282.0001 0001169 256.6727 332.9406 15.28465227 16918
STARLINK-33623          
1 63072U 25035W   25154.08095036 -.00001248  00000+0 -35848-4 0  9999
2 63072  43.0022 286.4670 0001182 242.9244 117.1487 15.27574146 16966
STARLINK-33586          
1 63073U 25035X   25154.07989098 -.00000123  00000+0  43240-5 0  9995
2 63073  43.0013 282.1244 0001596 268.9840  91.0834 15.40692667 17013
STARLINK-33605          
1 63074U 25035Y   25153.84755005 -.00004625  00000+0 -15882-3 0  9990
2 63074  43.0038 287.2858 0001911 280.3998  79.6638 15.27544672 16921
ZHONGXING-10R           
1 63075U 25036A   25153.72544907 -.00000356  00000+0  00000+0 0  9994
2 63075   0.2895  89.6188 0023581  89.1369  98.4621  0.99974945  1133
STARLINK-32839          
1 63077U 25037A   25154.25002315 -.01545061  00000+0 -66082-1 0  9991
2 63077  70.0005 339.5814 0003487 267.1235 344.3814 15.25784603 16676
STARLINK-32821          
1 63078U 25037B   25154.25002315 -.01528968  00000+0 -74556-1 0  9994
2 63078  70.0005 339.4596 0003493 273.5732  84.2315 15.21359338 16566
STARLINK-32817          
1 63079U 25037C   25154.25002315 -.01528302  00000+0 -70327-1 0  9999
2 63079  70.0003 339.3166 0003154 275.8046 207.5073 15.23316758 16623
STARLINK-32906          
1 63080U 25037D   25154.25002315 -.01527727  00000+0 -80000-1 0  9990
2 63080  70.0006 339.4614 0003620 269.6862  85.2235 15.18919323 16736
STARLINK-32895          
1 63081U 25037E   25154.25002315 -.01526787  00000+0 -72789-1 0  9991
2 63081  70.0006 339.5454 0003448 272.2086  10.5525 15.22119133 16577
STARLINK-32933          
1 63082U 25037F   25154.25002315 -.01528101  00000+0 -77795-1 0  9996
2 63082  70.0003 339.3360 0003209 269.4530 195.6948 15.19891303 16673
STARLINK-32932          
1 63083U 25037G   25154.25002315 -.01534618  00000+0 -66551-1 0  9995
2 63083  70.0006 339.5382 0003614 266.7933  22.1625 15.25303885 16520
STARLINK-32908          
1 63084U 25037H   25154.25002315 -.01538579  00000+0 -71806-1 0  9995
2 63084  70.0005 339.4033 0003631 275.5231 131.9713 15.22859462 16420
STARLINK-32505          
1 63085U 25037J   25154.25002315 -.01531932  00000+0 -75856-1 0  9991
2 63085  70.0005 339.5201 0003484 271.3923  32.5851 15.20843859 16674
STARLINK-32914          
1 63086U 25037K   25154.25002315 -.01527579  00000+0 -76745-1 0  9992
2 63086  70.0004 339.3505 0003221 275.8334 176.3679 15.20342918 16735
